{"type": "FeatureCollection", "features": [ {"type": "Feature", "properties": {"norad_id": 35442, "name": "COSMOS 2251 DEB", "group": "cosmos-2251-debris", "lat": -72.68883066684221, "lon": -9.293465513389846, "alt_km": 625.3941510920222, "timestamp": "2025-12-10T07:43:55.175329+00:00", "meta": {"OBJECT_NAME": "COSMOS 2251 DEB", "OBJECT_ID": "1993-036AKL", "EPOCH": "2025-12-09T14:22:23.975040", "MEAN_MOTION": 14.84229139, "ECCENTRICITY": 0.0003867, "INCLINATION": 74.0279, "RA_OF_ASC_NODE": 105.3704, "ARG_OF_PERICENTER": 102.501, "MEAN_ANOMALY": 257.6601, "EPHEMERIS_TYPE": 0, "CLASSIFICATION_TYPE": "U", "NORAD_CAT_ID": 35442, "ELEMENT_SET_NO": 999, "REV_AT_EPOCH": 87306, "BSTAR": 0.0036554, "MEAN_MOTION_DOT": 0.00030716, "MEAN_MOTION_DDOT": 0}, "tle": {"line1": "1 35442U 93036AKL 25343.59888860  .00030716  00000+0  36554-2 0  9999", "line2": "2 35442  74.0279 105.3704 0003867 102.5010 257.6601 14.84229139873066"}}, "geometry": {"type": "Point", "coordinates": [-9.293465513389846, -72.68883066684221]}}, {"type": "Feature", "properties": {"norad_id": 35443, "name": "COSMOS 2251 DEB", "group": "cosmos-2251-debris", "lat": -10.891953812079686, "lon": 159.66585866080922, "alt_km": 566.2040897718325, "timestamp": "2025-12-10T07:43:55.175339+00:00", "meta": {"OBJECT_NAME": "COSMOS 2251 DEB", "OBJECT_ID": "1993-036AKM", "EPOCH": "2025-12-08T06:44:44.274336", "MEAN_MOTION": 14.96147372, "ECCENTRICITY": 0.00733753, "INCLINATION": 73.988, "RA_OF_ASC_NODE": 340.6328, "ARG_OF_PERICENTER": 123.8306, "MEAN_ANOMALY": 236.9892, "EPHEMERIS_TYPE": 0, "CLASSIFICATION_TYPE": "U", "NORAD_CAT_ID": 35443, "ELEMENT_SET_NO": 999, "REV_AT_EPOCH": 86811, "BSTAR": 0.0035457848, "MEAN_MOTION_DOT": 0.00042371, "MEAN_MOTION_DDOT": 0}, "tle": {"line1": "1 35443U 93036AKM 25342.28106799  .00042371  00000+0  35458-2 0  9991", "line2": "2 35443  73.9880 340.6328 0073375 123.8306 236.9892 14.96147372868117"}}, "geometry": {"type": "Point", "coordinates": [159.66585866080922, -10.891953812079686]}}, {"type": "Feature", "properties": {"norad_id": 35445, "name": "COSMOS 2251 DEB", "group": "cosmos-2251-debris", "lat": -10.385261851718875, "lon": 127.62076630737374, "alt_km": 794.4763248953868, "timestamp": "2025-12-10T07:43:55.175349+00:00", "meta": {"OBJECT_NAME": "COSMOS 2251 DEB", "OBJECT_ID": "1993-036AKP", "EPOCH": "2025-12-09T14:24:43.016832", "MEAN_MOTION": 14.5903749, "ECCENTRICITY": 0.0143697, "INCLINATION": 74.0376, "RA_OF_ASC_NODE": 305.9887, "ARG_OF_PERICENTER": 33.7492, "MEAN_ANOMALY": 327.2717, "EPHEMERIS_TYPE": 0, "CLASSIFICATION_TYPE": "U", "NORAD_CAT_ID": 35445, "ELEMENT_SET_NO": 999, "REV_AT_EPOCH": 87283, "BSTAR": 0.0029214, "MEAN_MOTION_DOT": 0.00015858, "MEAN_MOTION_DDOT": 0}, "tle": {"line1": "1 35445U 93036AKP 25343.60049788  .00015858  00000+0  29214-2 0  9997", "line2": "2 35445  74.0376 305.9887 0143697  33.7492 327.2717 14.59037490872837"}}, "geometry": {"type": "Point", "coordinates": [127.62076630737374, -10.385261851718875]}}, {"type": "Feature", "properties": {"norad_id": 35446, "name": "COSMOS 2251 DEB", "group": "cosmos-2251-debris", "lat": -73.36514454125468, "lon": -144.02359691366578, "alt_km": 770.1877362872365, "timestamp": "2025-12-10T07:43:55.175360+00:00", "meta": {"OBJECT_NAME": "COSMOS 2251 DEB", "OBJECT_ID": "1993-036AKQ", "EPOCH": "2025-12-05T17:34:52.262112", "MEAN_MOTION": 14.54618421, "ECCENTRICITY": 0.00744002, "INCLINATION": 74.0466, "RA_OF_ASC_NODE": 331.4309, "ARG_OF_PERICENTER": 91.6694, "MEAN_ANOMALY": 269.2992, "EPHEMERIS_TYPE": 0, "CLASSIFICATION_TYPE": "U", "NORAD_CAT_ID": 35446, "ELEMENT_SET_NO": 999, "REV_AT_EPOCH": 87906, "BSTAR": 0.00018901942, "MEAN_MOTION_DOT": 8.08e-06, "MEAN_MOTION_DDOT": 0}, "tle": {"line1": "1 35446U 93036AKQ 25339.73254933  .00000808  00000+0  18902-3 0  9999", "line2": "2 35446  74.0466 331.4309 0074400  91.6694 269.2992 14.54618421879069"}}, "geometry": {"type": "Point", "coordinates": [-144.02359691366578, -73.36514454125468]}}, {"type": "Feature", "properties": {"norad_id": 35448, "name": "COSMOS 2251 DEB", "group": "cosmos-2251-debris", "lat": 49.8038824883124, "lon": -105.8632994966814, "alt_km": 713.7500669372075, "timestamp": "2025-12-10T07:43:55.175371+00:00", "meta": {"OBJECT_NAME": "COSMOS 2251 DEB", "OBJECT_ID": "1993-036AKS", "EPOCH": "2025-12-08T08:55:07.122144", "MEAN_MOTION": 14.54200662, "ECCENTRICITY": 0.00113673, "INCLINATION": 73.9041, "RA_OF_ASC_NODE": 97.835, "ARG_OF_PERICENTER": 278.6106, "MEAN_ANOMALY": 81.3768, "EPHEMERIS_TYPE": 0, "CLASSIFICATION_TYPE": "U", "NORAD_CAT_ID": 35448, "ELEMENT_SET_NO": 999, "REV_AT_EPOCH": 87271, "BSTAR": 0.0016168374, "MEAN_MOTION_DOT": 6.829e-05, "MEAN_MOTION_DDOT": 0}, "tle": {"line1": "1 35448U 93036AKS 25342.37161021  .00006829  00000+0  16168-2 0  9990", "line2": "2 35448  73.9041  97.8350 0011367 278.6106  81.3768 14.54200662872718"}}, "geometry": {"type": "Point", "coordinates": [-105.8632994966814, 49.8038824883124]}}, {"type": "Feature", "properties": {"norad_id": 35451, "name": "COSMOS 2251 DEB", "group": "cosmos-2251-debris", "lat": 15.851122075249048, "lon": -76.80419427484836, "alt_km": 488.07779342469166, "timestamp": "2025-12-10T07:43:55.175381+00:00", "meta": {"OBJECT_NAME": "COSMOS 2251 DEB", "OBJECT_ID": "1993-036AKV", "EPOCH": "2025-12-09T18:30:37.951776", "MEAN_MOTION": 15.35105788, "ECCENTRICITY": 0.0040667, "INCLINATION": 73.9316, "RA_OF_ASC_NODE": 109.079, "ARG_OF_PERICENTER": 355.9338, "MEAN_ANOMALY": 4.153, "EPHEMERIS_TYPE": 0, "CLASSIFICATION_TYPE": "U", "NORAD_CAT_ID": 35451, "ELEMENT_SET_NO": 999, "REV_AT_EPOCH": 67360, "BSTAR": 0.0019617, "MEAN_MOTION_DOT": 0.00069256, "MEAN_MOTION_DDOT": 0}, "tle": {"line1": "1 35451U 93036AKV 25343.77127259  .00069256  00000+0  19617-2 0  9999", "line2": "2 35451  73.9316 109.0790 0040667 355.9338   4.1530 15.35105788673602"}}, "geometry": {"type": "Point", "coordinates": [-76.80419427484836, 15.851122075249048]}}, {"type": "Feature", "properties": {"norad_id": 35453, "name": "COSMOS 2251 DEB", "group": "cosmos-2251-debris", "lat": -36.35050965078309, "lon": 12.658457033987947, "alt_km": 817.5598263098864, "timestamp": "2025-12-10T07:43:55.175392+00:00", "meta": {"OBJECT_NAME": "COSMOS 2251 DEB", "OBJECT_ID": "1993-036AKX", "EPOCH": "2025-12-02T12:53:58.122528", "MEAN_MOTION": 14.3790654, "ECCENTRICITY": 0.00680216, "INCLINATION": 74.0102, "RA_OF_ASC_NODE": 39.1945, "ARG_OF_PERICENTER": 175.6131, "MEAN_ANOMALY": 184.5634, "EPHEMERIS_TYPE": 0, "CLASSIFICATION_TYPE": "U", "NORAD_CAT_ID": 35453, "ELEMENT_SET_NO": 999, "REV_AT_EPOCH": 86072, "BSTAR": 0.00098540606, "MEAN_MOTION_DOT": 3.03e-05, "MEAN_MOTION_DDOT": 0}, "tle": {"line1": "1 35453U 93036AKX 25336.53747827  .00003030  00000+0  98541-3 0  9998", "line2": "2 35453  74.0102  39.1945 0068021 175.6131 184.5634 14.37906540860721"}}, "geometry": {"type": "Point", "coordinates": [12.658457033987947, -36.35050965078309]}}, {"type": "Feature", "properties": {"norad_id": 35455, "name": "COSMOS 2251 DEB", "group": "cosmos-2251-debris", "lat": 69.08936161031987, "lon": -12.103879967622385, "alt_km": 661.4527309781852, "timestamp": "2025-12-10T07:43:55.175402+00:00", "meta": {"OBJECT_NAME": "COSMOS 2251 DEB", "OBJECT_ID": "1993-036AKZ", "EPOCH": "2025-12-09T14:49:18.253632", "MEAN_MOTION": 14.49343184, "ECCENTRICITY": 0.0098941, "INCLINATION": 74.0284, "RA_OF_ASC_NODE": 300.6641, "ARG_OF_PERICENTER": 44.9536, "MEAN_ANOMALY": 315.958, "EPHEMERIS_TYPE": 0, "CLASSIFICATION_TYPE": "U", "NORAD_CAT_ID": 35455, "ELEMENT_SET_NO": 999, "REV_AT_EPOCH": 86498, "BSTAR": 0.0024474, "MEAN_MOTION_DOT": 9.937e-05, "MEAN_MOTION_DDOT": 0}, "tle": {"line1": "1 35455U 93036AKZ 25343.61757238  .00009937  00000+0  24474-2 0  9999", "line2": "2 35455  74.0284 300.6641 0098941  44.9536 315.9580 14.49343184864988"}}, "geometry": {"type": "Point", "coordinates": [-12.103879967622385, 69.08936161031987]}}, {"type": "Feature", "properties": {"norad_id": 35456, "name": "COSMOS 2251 DEB", "group": "cosmos-2251-debris", "lat": -72.16692807815716, "lon": 5.674483178712057, "alt_km": 654.3300721158421, "timestamp": "2025-12-10T07:43:55.175412+00:00", "meta": {"OBJECT_NAME": "COSMOS 2251 DEB", "OBJECT_ID": "1993-036ALA", "EPOCH": "2025-12-07T16:26:35.520576", "MEAN_MOTION": 14.69275987, "ECCENTRICITY": 0.0065481, "INCLINATION": 73.9502, "RA_OF_ASC_NODE": 127.3161, "ARG_OF_PERICENTER": 338.308, "MEAN_ANOMALY": 21.5318, "EPHEMERIS_TYPE": 0, "CLASSIFICATION_TYPE": "U", "NORAD_CAT_ID": 35456, "ELEMENT_SET_NO": 999, "REV_AT_EPOCH": 65801, "BSTAR": 0.0028319025, "MEAN_MOTION_DOT": 0.00017275, "MEAN_MOTION_DDOT": 0}, "tle": {"line1": "1 35456U 93036ALA 25341.68513334  .00017275  00000+0  28319-2 0  9998", "line2": "2 35456  73.9502 127.3161 0065481 338.3080  21.5318 14.69275987658019"}}, "geometry": {"type": "Point", "coordinates": [5.674483178712057, -72.16692807815716]}}, {"type": "Feature", "properties": {"norad_id": 35459, "name": "COSMOS 2251 DEB", "group": "cosmos-2251-debris", "lat": -21.716778086439902, "lon": 18.39677307613073, "alt_km": 766.3451312634252, "timestamp": "2025-12-10T07:43:55.175422+00:00", "meta": {"OBJECT_NAME": "COSMOS 2251 DEB", "OBJECT_ID": "1993-036ALD", "EPOCH": "2025-12-09T20:46:20.686080", "MEAN_MOTION": 14.37455732, "ECCENTRICITY": 0.0016384, "INCLINATION": 73.87, "RA_OF_ASC_NODE": 192.6266, "ARG_OF_PERICENTER": 141.5261, "MEAN_ANOMALY": 218.7063, "EPHEMERIS_TYPE": 0, "CLASSIFICATION_TYPE": "U", "NORAD_CAT_ID": 35459, "ELEMENT_SET_NO": 999, "REV_AT_EPOCH": 58320, "BSTAR": 0.00039096, "MEAN_MOTION_DOT": 1.144e-05, "MEAN_MOTION_DDOT": 0}, "tle": {"line1": "1 35459U 93036ALD 25343.86551720  .00001144  00000+0  39096-3 0  9997", "line2": "2 35459  73.8700 192.6266 0016384 141.5261 218.7063 14.37455732583203"}}, "geometry": {"type": "Point", "coordinates": [18.39677307613073, -21.716778086439902]}}]}